{"type": "FeatureCollection", "features": [ {"type": "Feature", "properties": {"norad_id": 34468, "name": "COSMOS 2251 DEB", "group": "cosmos-2251-debris", "lat": -58.67830107963277, "lon": 69.10972729490416, "alt_km": 710.5713304486044, "timestamp": "2025-12-23T09:49:07.477383+00:00", "meta": {"OBJECT_NAME": "COSMOS 2251 DEB", "OBJECT_ID": "1993-036TM", "EPOCH": "2025-12-22T00:56:13.410240", "MEAN_MOTION": 14.47648693, "ECCENTRICITY": 0.00763002, "INCLINATION": 74.013, "RA_OF_ASC_NODE": 99.7823, "ARG_OF_PERICENTER": 242.8301, "MEAN_ANOMALY": 116.5066, "EPHEMERIS_TYPE": 0, "CLASSIFICATION_TYPE": "U", "NORAD_CAT_ID": 34468, "ELEMENT_SET_NO": 999, "REV_AT_EPOCH": 88596, "BSTAR": 0.00032520607, "MEAN_MOTION_DOT": 1.214e-05, "MEAN_MOTION_DDOT": 0}, "tle": {"line1": "1 34468U 93036TM  25356.03904410  .00001214  00000+0  32521-3 0  9991", "line2": "2 34468  74.0130  99.7823 0076300 242.8301 116.5066 14.47648693885969"}}, "geometry": {"type": "Point", "coordinates": [69.10972729490416, -58.67830107963277]}}, {"type": "Feature", "properties": {"norad_id": 34472, "name": "COSMOS 2251 DEB", "group": "cosmos-2251-debris", "lat": -52.60021111571222, "lon": -77.48870702585624, "alt_km": 786.7123282666607, "timestamp": "2025-12-23T09:49:07.477393+00:00", "meta": {"OBJECT_NAME": "COSMOS 2251 DEB", "OBJECT_ID": "1993-036TR", "EPOCH": "2025-12-21T16:22:23.941920", "MEAN_MOTION": 13.70344234, "ECCENTRICITY": 0.03278312, "INCLINATION": 74.0843, "RA_OF_ASC_NODE": 83.4375, "ARG_OF_PERICENTER": 212.5022, "MEAN_ANOMALY": 145.5535, "EPHEMERIS_TYPE": 0, "CLASSIFICATION_TYPE": "U", "NORAD_CAT_ID": 34472, "ELEMENT_SET_NO": 999, "REV_AT_EPOCH": 83849, "BSTAR": 0.00054867639, "MEAN_MOTION_DOT": 6.85e-06, "MEAN_MOTION_DDOT": 0}, "tle": {"line1": "1 34472U 93036TR  25355.68222155  .00000685  00000+0  54868-3 0  9994", "line2": "2 34472  74.0843  83.4375 0327831 212.5022 145.5535 13.70344234838497"}}, "geometry": {"type": "Point", "coordinates": [-77.48870702585624, -52.60021111571222]}}, {"type": "Feature", "properties": {"norad_id": 34474, "name": "COSMOS 2251 DEB", "group": "cosmos-2251-debris", "lat": -45.81225202077415, "lon": -69.5250256743245, "alt_km": 818.7693207020566, "timestamp": "2025-12-23T09:49:07.477403+00:00", "meta": {"OBJECT_NAME": "COSMOS 2251 DEB", "OBJECT_ID": "1993-036TT", "EPOCH": "2025-12-22T20:31:36.971328", "MEAN_MOTION": 14.06491301, "ECCENTRICITY": 0.01992242, "INCLINATION": 74.0788, "RA_OF_ASC_NODE": 308.5179, "ARG_OF_PERICENTER": 19.9008, "MEAN_ANOMALY": 10.9242, "EPHEMERIS_TYPE": 0, "CLASSIFICATION_TYPE": "U", "NORAD_CAT_ID": 34474, "ELEMENT_SET_NO": 999, "REV_AT_EPOCH": 85651, "BSTAR": 0.0022466759, "MEAN_MOTION_DOT": 4.427e-05, "MEAN_MOTION_DDOT": 0}, "tle": {"line1": "1 34474U 93036TT  25356.85528902  .00004427  00000+0  22467-2 0  9992", "line2": "2 34474  74.0788 308.5179 0199224  19.9008  10.9242 14.06491301856517"}}, "geometry": {"type": "Point", "coordinates": [-69.5250256743245, -45.81225202077415]}}, {"type": "Feature", "properties": {"norad_id": 34476, "name": "COSMOS 2251 DEB", "group": "cosmos-2251-debris", "lat": 66.29587987398064, "lon": 105.30256939879764, "alt_km": 1153.043152317503, "timestamp": "2025-12-23T09:49:07.477414+00:00", "meta": {"OBJECT_NAME": "COSMOS 2251 DEB", "OBJECT_ID": "1993-036TV", "EPOCH": "2025-12-22T05:40:05.983968", "MEAN_MOTION": 13.82121657, "ECCENTRICITY": 0.03220378, "INCLINATION": 74.0075, "RA_OF_ASC_NODE": 66.4974, "ARG_OF_PERICENTER": 284.1027, "MEAN_ANOMALY": 72.4508, "EPHEMERIS_TYPE": 0, "CLASSIFICATION_TYPE": "U", "NORAD_CAT_ID": 34476, "ELEMENT_SET_NO": 999, "REV_AT_EPOCH": 83769, "BSTAR": 0.0038398251, "MEAN_MOTION_DOT": 6.122e-05, "MEAN_MOTION_DDOT": 0}, "tle": {"line1": "1 34476U 93036TV  25356.23618037  .00006122  00000+0  38398-2 0  9999", "line2": "2 34476  74.0075  66.4974 0322037 284.1027  72.4508 13.82121657837691"}}, "geometry": {"type": "Point", "coordinates": [105.30256939879764, 66.29587987398064]}}, {"type": "Feature", "properties": {"norad_id": 34477, "name": "COSMOS 2251 DEB", "group": "cosmos-2251-debris", "lat": -41.13334128190598, "lon": 34.63571891790219, "alt_km": 701.8879214654844, "timestamp": "2025-12-23T09:49:07.477424+00:00", "meta": {"OBJECT_NAME": "COSMOS 2251 DEB", "OBJECT_ID": "1993-036TW", "EPOCH": "2025-12-22T08:13:30.792000", "MEAN_MOTION": 14.56926578, "ECCENTRICITY": 0.00767627, "INCLINATION": 73.9785, "RA_OF_ASC_NODE": 51.2013, "ARG_OF_PERICENTER": 236.5866, "MEAN_ANOMALY": 248.5286, "EPHEMERIS_TYPE": 0, "CLASSIFICATION_TYPE": "U", "NORAD_CAT_ID": 34477, "ELEMENT_SET_NO": 999, "REV_AT_EPOCH": 88765, "BSTAR": 0.00073489763, "MEAN_MOTION_DOT": 3.404e-05, "MEAN_MOTION_DDOT": 0}, "tle": {"line1": "1 34477U 93036TW  25356.34271750  .00003404  00000+0  73490-3 0  9992", "line2": "2 34477  73.9785  51.2013 0076762 236.5866 248.5286 14.56926578887654"}}, "geometry": {"type": "Point", "coordinates": [34.63571891790219, -41.13334128190598]}}, {"type": "Feature", "properties": {"norad_id": 34478, "name": "COSMOS 2251 DEB", "group": "cosmos-2251-debris", "lat": 10.506728268367207, "lon": -12.035081301366668, "alt_km": 564.1481658734747, "timestamp": "2025-12-23T09:49:07.477434+00:00", "meta": {"OBJECT_NAME": "COSMOS 2251 DEB", "OBJECT_ID": "1993-036TX", "EPOCH": "2025-12-21T04:12:46.485792", "MEAN_MOTION": 15.08639002, "ECCENTRICITY": 0.00340243, "INCLINATION": 74.0409, "RA_OF_ASC_NODE": 349.5203, "ARG_OF_PERICENTER": 208.4525, "MEAN_ANOMALY": 276.406, "EPHEMERIS_TYPE": 0, "CLASSIFICATION_TYPE": "U", "NORAD_CAT_ID": 34478, "ELEMENT_SET_NO": 999, "REV_AT_EPOCH": 89100, "BSTAR": 0.0018985498, "MEAN_MOTION_DOT": 0.00030215, "MEAN_MOTION_DDOT": 0}, "tle": {"line1": "1 34478U 93036TX  25355.17553803  .00030215  00000+0  18985-2 0  9992", "line2": "2 34478  74.0409 349.5203 0034024 208.4525 276.4060 15.08639002891004"}}, "geometry": {"type": "Point", "coordinates": [-12.035081301366668, 10.506728268367207]}}, {"type": "Feature", "properties": {"norad_id": 34481, "name": "COSMOS 2251 DEB", "group": "cosmos-2251-debris", "lat": -59.512620914776015, "lon": 4.698440131359184, "alt_km": 789.6137901430111, "timestamp": "2025-12-23T09:49:07.477444+00:00", "meta": {"OBJECT_NAME": "COSMOS 2251 DEB", "OBJECT_ID": "1993-036UA", "EPOCH": "2025-12-22T19:35:34.279008", "MEAN_MOTION": 14.32584619, "ECCENTRICITY": 0.00703456, "INCLINATION": 73.9791, "RA_OF_ASC_NODE": 34.995, "ARG_OF_PERICENTER": 207.45, "MEAN_ANOMALY": 272.3342, "EPHEMERIS_TYPE": 0, "CLASSIFICATION_TYPE": "U", "NORAD_CAT_ID": 34481, "ELEMENT_SET_NO": 999, "REV_AT_EPOCH": 87593, "BSTAR": 0.00052794174, "MEAN_MOTION_DOT": 1.447e-05, "MEAN_MOTION_DDOT": 0}, "tle": {"line1": "1 34481U 93036UA  25356.81636897  .00001447  00000+0  52794-3 0  9995", "line2": "2 34481  73.9791  34.9950 0070345 207.4500 272.3342 14.32584619875933"}}, "geometry": {"type": "Point", "coordinates": [4.698440131359184, -59.512620914776015]}}, {"type": "Feature", "properties": {"norad_id": 34482, "name": "COSMOS 2251 DEB", "group": "cosmos-2251-debris", "lat": 68.0655336872029, "lon": -111.76307939703612, "alt_km": 687.185557934923, "timestamp": "2025-12-23T09:49:07.477454+00:00", "meta": {"OBJECT_NAME": "COSMOS 2251 DEB", "OBJECT_ID": "1993-036UB", "EPOCH": "2025-12-22T20:28:01.423200", "MEAN_MOTION": 14.69364112, "ECCENTRICITY": 0.00444194, "INCLINATION": 74.0355, "RA_OF_ASC_NODE": 204.0081, "ARG_OF_PERICENTER": 262.154, "MEAN_ANOMALY": 111.024, "EPHEMERIS_TYPE": 0, "CLASSIFICATION_TYPE": "U", "NORAD_CAT_ID": 34482, "ELEMENT_SET_NO": 999, "REV_AT_EPOCH": 88336, "BSTAR": 0.0017045119, "MEAN_MOTION_DOT": 0.00010212, "MEAN_MOTION_DDOT": 0}, "tle": {"line1": "1 34482U 93036UB  25356.85279425  .00010212  00000+0  17045-2 0  9999", "line2": "2 34482  74.0355 204.0081 0044419 262.1540 111.0240 14.69364112883368"}}, "geometry": {"type": "Point", "coordinates": [-111.76307939703612, 68.0655336872029]}}, {"type": "Feature", "properties": {"norad_id": 34544, "name": "COSMOS 2251 DEB", "group": "cosmos-2251-debris", "lat": -59.93136753258145, "lon": 36.6509857520281, "alt_km": 814.4544355858388, "timestamp": "2025-12-23T09:49:07.477464+00:00", "meta": {"OBJECT_NAME": "COSMOS 2251 DEB", "OBJECT_ID": "1993-036UE", "EPOCH": "2025-12-21T21:30:37.256256", "MEAN_MOTION": 13.54670498, "ECCENTRICITY": 0.03836913, "INCLINATION": 73.9139, "RA_OF_ASC_NODE": 189.2056, "ARG_OF_PERICENTER": 215.9783, "MEAN_ANOMALY": 210.8549, "EPHEMERIS_TYPE": 0, "CLASSIFICATION_TYPE": "U", "NORAD_CAT_ID": 34544, "ELEMENT_SET_NO": 999, "REV_AT_EPOCH": 83006, "BSTAR": 0.00039407504, "MEAN_MOTION_DOT": 4.09e-06, "MEAN_MOTION_DDOT": 0}, "tle": {"line1": "1 34544U 93036UE  25355.89626454  .00000409  00000+0  39408-3 0  9994", "line2": "2 34544  73.9139 189.2056 0383691 215.9783 210.8549 13.54670498830063"}}, "geometry": {"type": "Point", "coordinates": [36.6509857520281, -59.93136753258145]}}, {"type": "Feature", "properties": {"norad_id": 34546, "name": "COSMOS 2251 DEB", "group": "cosmos-2251-debris", "lat": 67.91013224364967, "lon": -85.82874632749116, "alt_km": 744.2313489718408, "timestamp": "2025-12-23T09:49:07.477474+00:00", "meta": {"OBJECT_NAME": "COSMOS 2251 DEB", "OBJECT_ID": "1993-036UG", "EPOCH": "2025-12-22T10:28:49.872576", "MEAN_MOTION": 14.45448917, "ECCENTRICITY": 0.00220526, "INCLINATION": 74.0296, "RA_OF_ASC_NODE": 231.1051, "ARG_OF_PERICENTER": 303.8094, "MEAN_ANOMALY": 112.4927, "EPHEMERIS_TYPE": 0, "CLASSIFICATION_TYPE": "U", "NORAD_CAT_ID": 34546, "ELEMENT_SET_NO": 999, "REV_AT_EPOCH": 88166, "BSTAR": 0.00048545391, "MEAN_MOTION_DOT": 1.688e-05, "MEAN_MOTION_DDOT": 0}, "tle": {"line1": "1 34546U 93036UG  25356.43668834  .00001688  00000+0  48545-3 0  9997", "line2": "2 34546  74.0296 231.1051 0022052 303.8094 112.4927 14.45448917881665"}}, "geometry": {"type": "Point", "coordinates": [-85.82874632749116, 67.91013224364967]}}]}